GLOBALSTAR M084         
1 38040U 11080A   25358.05865720 -.00000107  00000+0 -18900-4 0  9992
2 38040  51.9979 190.4373 0001375  86.4640  87.1910 12.62266830646646
GLOBALSTAR M080         
1 38041U 11080B   25358.02794420 -.00000104  00000+0  11682-5 0  9995
2 38041  52.0030 192.1885 0000702 103.0756  60.8463 12.62265169646769
GLOBALSTAR M082         
1 38042U 11080C   25358.20334475 -.00000115  00000+0 -62246-4 0  9990
2 38042  52.0052 147.1356 0000772 115.0408  55.9950 12.62266332647491
GLOBALSTAR M092         
1 38043U 11080D   25358.17715094 -.00000085  00000+0  10577-3 0  9991
2 38043  52.0071 237.6048 0000962  72.6130  98.9985 12.62268693645942
GLOBALSTAR M090         
1 38044U 11080E   25358.15071615 -.00000112  00000+0 -43583-4 0  9990
2 38044  52.0100 141.1956 0000867  98.2560  72.3887 12.62265521647607
GLOBALSTAR M086         
1 38045U 11080F   25358.17483670 -.00000098  00000+0  32054-4 0  9994
2 38045  51.9879 141.3371 0001500  55.8946 114.7544 12.62281450647558
GLOBALSTAR M097         
1 39072U 13005A   25358.08636804 -.00000096  00000+0  41855-4 0  9990
2 39072  52.0059  56.3574 0000385 104.8018 255.2892 12.62267599594798
GLOBALSTAR M093         
1 39073U 13005B   25358.06025444 -.00000092  00000+0  65791-4 0  9992
2 39073  52.0120  49.7183 0000176  74.8252 285.2634 12.62271178594744
